NORAD_CAT_ID,OBJECT_NAME,OBJECT_TYPE,EPOCH,MEAN_MOTION,ECCENTRICITY,INCLINATION,RA_OF_ASC_NODE,ARG_OF_PERICENTER,MEAN_ANOMALY,BSTAR,MEAN_MOTION_DOT,MEAN_MOTION_DDOT,TLE_LINE0,TLE_LINE1,TLE_LINE2,SEMIMAJOR_AXIS,PERIOD,APOGEE,PERIGEE,DECAYED
52867.0,STARLINK-4126,PAYLOAD,2023-10-05 19:40:04,15.08855932,0.0001445,53.2192,40.9456,94.8959,265.2198,0.0001958,2.831e-05,0.0,0 STARLINK-4126,1 52867U 22062AP  23278.81949502  .00002831  00000-0  19580-3 0  9990,2 52867  53.2192  40.9456 0001445  94.8959 265.2198 15.08855932 72196,6917.832,95.437,540.696,538.697,0.0
52867.0,STARLINK-4126,PAYLOAD,2023-10-06 08:23:10,15.0882887,0.0001252,53.2193,38.5683,100.9512,259.1621,-0.00023607,-4.042e-05,0.0,0 STARLINK-4126,1 52867U 22062AP  23279.34943118 -.00004042  00000-0 -23607-3 0  9999,2 52867  53.2193  38.5683 0001252 100.9512 259.1621 15.08828870 72769,6917.914,95.438,540.646,538.913,0.0
52867.0,STARLINK-4126,PAYLOAD,2023-10-06 13:09:20,15.08833453,0.0001509,53.2189,37.6755,96.2955,263.8209,-0.00013658,-2.461e-05,0.0,0 STARLINK-4126,1 52867U 22062AP  23279.54814982 -.00002461  00000-0 -13658-3 0  9995,2 52867  53.2189  37.6755 0001509  96.2955 263.8209 15.08833453 72304,6917.9,95.438,540.809,538.721,0.0
52867.0,STARLINK-4126,PAYLOAD,2023-10-06 14:44:43,15.08838359,0.0001488,53.2183,37.3808,91.7526,268.3637,-1.4558e-05,-5.2e-06,0.0,0 STARLINK-4126,1 52867U 22062AP  23279.61438924 -.00000520  00000-0 -14558-4 0  9996,2 52867  53.2183  37.3808 0001488  91.7526 268.3637 15.08838359 72804,6917.885,95.438,540.78,538.721,0.0
52867.0,STARLINK-4126,PAYLOAD,2023-10-07 13:00:07,15.08842303,0.0001355,53.2174,33.216,95.7859,264.3287,0.00023172,3.402e-05,0.0,0 STARLINK-4126,1 52867U 22062AP  23280.54174791  .00003402  00000-0  23172-3 0  9990,2 52867  53.2174  33.2160 0001355  95.7859 264.3287 15.08842303 72458,6917.873,95.437,540.676,538.801,0.0
52867.0,STARLINK-4126,PAYLOAD,2023-10-07 14:35:29,15.08849759,0.0001411,53.2176,32.9181,97.7323,262.383,0.00027917,4.159e-05,0.0,0 STARLINK-4126,1 52867U 22062AP  23280.60798426  .00004159  00000-0  27917-3 0  9995,2 52867  53.2176  32.9181 0001411  97.7323 262.3830 15.08849759 72959,6917.851,95.437,540.692,538.739,0.0
52867.0,STARLINK-4126,PAYLOAD,2023-10-08 00:07:48,15.08844706,0.0001489,53.219,31.1336,78.4208,281.6951,0.00010175,1.332e-05,0.0,0 STARLINK-4126,1 52867U 22062AP  23281.00542797  .00001332  00000-0  10175-3 0  9996,2 52867  53.2190  31.1336 0001489  78.4208 281.6951 15.08844706 73014,6917.866,95.437,540.761,538.701,0.0
52867.0,STARLINK-4126,PAYLOAD,2023-10-08 06:29:21,15.08836246,0.0001501,53.2179,29.9489,87.2003,272.9161,0.00021419,3.122e-05,0.0,0 STARLINK-4126,1 52867U 22062AP  23281.27039289  .00003122  00000-0  21419-3 0  9994,2 52867  53.2179  29.9489 0001501  87.2003 272.9161 15.08836246 73051,6917.892,95.438,540.795,538.718,0.0
52867.0,STARLINK-4126,PAYLOAD,2023-10-08 14:26:17,15.08850534,0.0001284,53.2176,28.459,86.9675,273.1464,0.00025982,3.851e-05,0.0,0 STARLINK-4126,1 52867U 22062AP  23281.60158579  .00003851  00000-0  25982-3 0  9993,2 52867  53.2176  28.4590 0001284  86.9675 273.1464 15.08850534 72610,6917.848,95.437,540.601,538.825,0.0
52867.0,STARLINK-4126,PAYLOAD,2023-10-08 17:37:02,15.0885593,0.000138,53.2179,27.8633,87.0448,273.0702,0.00030872,4.631e-05,0.0,0 STARLINK-4126,1 52867U 22062AP  23281.73406236  .00004631  00000-0  30872-3 0  9994,2 52867  53.2179  27.8633 0001380  87.0448 273.0702 15.08855930 73127,6917.832,95.437,540.651,538.742,0.0
52867.0,STARLINK-4126,PAYLOAD,2023-10-08 23:58:36,15.08840833,0.0001901,53.2187,26.672,75.8215,284.2989,3.9351e-05,3.38e-06,0.0,0 STARLINK-4126,1 52867U 22062AP  23281.99902954  .00000338  00000-0  39351-4 0  9992,2 52867  53.2187  26.6720 0001901  75.8215 284.2989 15.08840833 73167,6917.878,95.438,541.058,538.428,0.0
52867.0,STARLINK-4126,PAYLOAD,2023-10-09 12:41:41,15.08836388,0.000217,53.2185,24.2954,70.2839,289.8387,-0.00012172,-2.225e-05,0.0,0 STARLINK-4126,1 52867U 22062AP  23282.52895295 -.00002225  00000-0 -12172-3 0  9991,2 52867  53.2185  24.2954 0002170  70.2839 289.8387 15.08836388 72755,6917.891,95.438,541.258,538.255,0.0
52867.0,STARLINK-4126,PAYLOAD,2023-10-09 19:03:12,15.08857436,0.0001236,53.2182,23.1034,100.0877,260.0254,0.000181,2.595e-05,0.0,0 STARLINK-4126,1 52867U 22062AP  23282.79390038  .00002595  00000-0  18100-3 0  9990,2 52867  53.2182  23.1034 0001236 100.0877 260.0254 15.08857436 72790,6917.827,95.436,540.547,538.837,0.0
52867.0,STARLINK-4126,PAYLOAD,2023-10-10 12:32:28,15.08844916,0.0002175,53.2187,19.8354,60.2745,299.8463,0.00013377,1.842e-05,0.0,0 STARLINK-4126,1 52867U 22062AP  23283.52254999  .00001842  00000-0  13377-3 0  9992,2 52867  53.2187  19.8354 0002175  60.2745 299.8463 15.08844916 73394,6917.865,95.437,541.235,538.226,0.0
52867.0,STARLINK-4126,PAYLOAD,2023-10-10 15:43:13,15.08864454,0.0001482,53.2181,19.2409,76.2574,283.8583,0.00045048,6.893e-05,0.0,0 STARLINK-4126,1 52867U 22062AP  23283.65502032  .00006893  00000-0  45048-3 0  9991,2 52867  53.2181  19.2409 0001482  76.2574 283.8583 15.08864454 73418,6917.806,95.436,540.696,538.645,0.0
52867.0,STARLINK-4126,PAYLOAD,2023-10-10 18:53:59,15.08871253,0.0001259,53.2175,18.6453,84.0121,276.1014,0.00055766,8.606e-05,0.0,0 STARLINK-4126,1 52867U 22062AP  23283.78749487  .00008606  00000-0  55766-3 0  9994,2 52867  53.2175  18.6453 0001259  84.0121 276.1014 15.08871253 72946,6917.785,95.436,540.521,538.779,0.0
52867.0,STARLINK-4126,PAYLOAD,2023-10-11 12:23:15,15.0883571,0.0001957,53.2188,15.3701,103.9742,256.1467,-8.7268e-05,-1.677e-05,0.0,0 STARLINK-4126,1 52867U 22062AP  23284.51615009 -.00001677  00000-0 -87268-4 0  9994,2 52867  53.2188  15.3701 0001957 103.9742 256.1467 15.08835710 73540,6917.894,95.438,541.112,538.405,0.0
52867.0,STARLINK-4126,PAYLOAD,2023-10-11 13:58:38,15.08842274,0.0001508,53.2185,15.0745,102.5418,257.5743,5.5503e-05,5.96e-06,0.0,0 STARLINK-4126,1 52867U 22062AP  23284.58238789  .00000596  00000-0  55503-4 0  9991,2 52867  53.2185  15.0745 0001508 102.5418 257.5743 15.08842274 73061,6917.873,95.437,540.782,538.695,0.0
52867.0,STARLINK-4126,PAYLOAD,2023-10-11 23:30:57,15.08820914,0.0001305,53.2198,13.2913,93.2013,266.9129,-0.00031512,-5.297e-05,0.0,0 STARLINK-4126,1 52867U 22062AP  23284.97983366 -.00005297  00000-0 -31512-3 0  9990,2 52867  53.2198  13.2913 0001305  93.2013 266.9129 15.08820914 73614,6917.939,95.439,540.707,538.901,0.0
52867.0,STARLINK-4126,PAYLOAD,2023-10-12 12:14:02,15.08841181,0.0001957,53.2182,10.9175,74.4479,285.6729,0.00023382,3.435e-05,0.0,0 STARLINK-4126,1 52867U 22062AP  23285.50975689  .00003435  00000-0  23382-3 0  9995,2 52867  53.2182  10.9175 0001957  74.4479 285.6729 15.08841181 73209,6917.877,95.437,541.096,538.388,0.0
52867.0,STARLINK-4126,PAYLOAD,2023-10-12 17:00:11,15.08850635,0.0001651,53.2187,10.0204,86.4251,273.693,0.00058936,9.107e-05,0.0,0 STARLINK-4126,1 52867U 22062AP  23285.70846946  .00009107  00000-0  58936-3 0  9995,2 52867  53.2187  10.0204 0001651  86.4251 273.6930 15.08850635 73722,6917.848,95.437,540.855,538.571,0.0
52867.0,STARLINK-4126,PAYLOAD,2023-10-12 23:21:44,15.08831305,0.0001302,53.2184,8.833,96.8803,263.2337,0.00022004,3.215e-05,0.0,0 STARLINK-4126,1 52867U 22062AP  23285.97343631  .00003215  00000-0  22004-3 0  9998,2 52867  53.2184   8.8330 0001302  96.8803 263.2337 15.08831305 73768,6917.907,95.438,540.673,538.871,0.0
52867.0,STARLINK-4126,PAYLOAD,2023-10-13 10:29:26,15.08848977,0.0001514,53.2182,6.7504,99.5272,260.5892,0.00042897,6.547e-05,0.0,0 STARLINK-4126,1 52867U 22062AP  23286.43711579  .00006547  00000-0  42897-3 0  9993,2 52867  53.2182   6.7504 0001514  99.5272 260.5892 15.08848977 73838,6917.853,95.437,540.765,538.671,0.0
52867.0,STARLINK-4126,PAYLOAD,2023-10-14 10:20:13,15.08857086,0.0001659,53.2179,2.295,64.9309,295.1855,0.00047308,7.253e-05,0.0,0 STARLINK-4126,1 52867U 22062AP  23287.43071204  .00007253  00000-0  47308-3 0  9995,2 52867  53.2179   2.2950 0001659  64.9309 295.1855 15.08857086 73987,6917.828,95.436,540.841,538.545,0.0
52867.0,STARLINK-4126,PAYLOAD,2023-10-14 11:55:36,15.08864025,0.0001501,53.2175,1.9965,84.0259,276.0904,0.00064184,9.948e-05,0.0,0 STARLINK-4126,1 52867U 22062AP  23287.49694870  .00009948  00000-0  64184-3 0  9995,2 52867  53.2175   1.9965 0001501  84.0259 276.0904 15.08864025 73500,6917.807,95.436,540.71,538.634,0.0
52867.0,STARLINK-4126,PAYLOAD,2023-10-14 15:06:22,15.08872789,0.0001422,53.2184,1.3992,86.1219,273.9936,0.00091903,0.00014382,0.0,0 STARLINK-4126,1 52867U 22062AP  23287.62942508  .00014382  00000-0  91903-3 0  9991,2 52867  53.2184   1.3992 0001422  86.1219 273.9936 15.08872789 74019,6917.78,95.435,540.629,538.661,0.0
52867.0,STARLINK-4126,PAYLOAD,2023-10-15 05:24:51,15.08822283,0.0001519,53.218,358.7243,109.0214,251.0942,-0.00049612,-8.171e-05,0.0,0 STARLINK-4126,1 52867U 22062AP  23288.22559660 -.00008171  00000-0 -49612-3 0  9992,2 52867  53.2180 358.7243 0001519 109.0214 251.0942 15.08822283 74108,6917.935,95.439,540.85,538.749,0.0
52867.0,STARLINK-4126,PAYLOAD,2023-10-15 11:46:24,15.08822744,0.0001346,53.2171,357.5358,102.4707,257.6436,7.7174e-05,9.4e-06,0.0,0 STARLINK-4126,1 52867U 22062AP  23288.49056114  .00000940  00000-0  77174-4 0  9996,2 52867  53.2171 357.5358 0001346 102.4707 257.6436 15.08822744 73655,6917.933,95.439,540.729,538.867,0.0
52867.0,STARLINK-4126,PAYLOAD,2023-10-15 21:18:43,15.08832554,0.000135,53.217,355.7517,106.673,253.4411,0.00092281,0.00014426,0.0,0 STARLINK-4126,1 52867U 22062AP  23288.88800575  .00014426  00000-0  92281-3 0  9996,2 52867  53.2170 355.7517 0001350 106.6730 253.4411 15.08832554 73712,6917.903,95.438,540.702,538.834,0.0
52867.0,STARLINK-4126,PAYLOAD,2023-10-16 08:26:25,15.08846881,0.0001403,53.2166,353.6705,107.3457,252.7688,0.0010712,0.00016804,0.0,0 STARLINK-4126,1 52867U 22062AP  23289.35168657  .00016804  00000-0  10712-2 0  9997,2 52867  53.2166 353.6705 0001403 107.3457 252.7688 15.08846881 74274,6917.859,95.437,540.695,538.754,0.0
